{"fetched_at":"2026-03-30T13:17:50Z","count":15418,"tles":[{"name":"STARLINK-11622 [DTC]","line1":"1 63187U 25048E   26087.68075809  .00282354  00000+0  21151-2 0  9995","line2":"2 63187  43.0012 205.8120 0002568 264.5643  95.4932 15.71007577 61500","category":"Starlink"}]}